FLOCK 4BE-36            
1 60486U 24149U   26094.76678005  .00027524  00000+0  68109-3 0  9990
2 60486  97.3753 178.4454 0004582 158.5145 201.6294 15.40402565 91041
FLOCK 4BE-25            
1 60487U 24149V   26094.75687713  .00021213  00000+0  58841-3 0  9997
2 60487  97.3811 177.5147 0003496 144.5127 215.6350 15.36943004 90954
FLOCK 4BE-31            
1 60488U 24149W   26094.20202561  .00039531  00000+0  94788-3 0  9994
2 60488  97.3811 178.5507 0003574 156.4186 203.7225 15.41287355 90977
FLOCK 4BE-20            
1 60489U 24149X   26094.68286022  .00019685  00000+0  56018-3 0  9993
2 60489  97.3715 176.5057 0004839 155.1586 204.9892 15.36152518 90928
FLOCK 4BE-23            
1 60490U 24149Y   26094.78598675  .00020232  00000+0  58235-3 0  9999
2 60490  97.3792 176.9442 0004420 160.7238 199.4174 15.35792935 90922
FLOCK 4BE-15            
1 60491U 24149Z   26094.78638057  .00121112  00000+0  25047-2 0  9992
2 60491  97.3723 178.2662 0005284 223.5771 136.5061 15.45338151 91043
FLOCK 4BE-17            
1 60492U 24149AA  26094.66923848  .00022524  00000+0  61028-3 0  9992
2 60492  97.3784 177.5764 0004213 151.0514 209.0965 15.37657379 90952
NUSAT-50 (NANCY ROMAN)  
1 60493U 24149AB  26094.76439714  .00016651  00000+0  56499-3 0  9998
2 60493  97.3786 176.5678 0004561 144.7931 215.3612 15.30580628 90905
FLOCK 4BE-22            
1 60494U 24149AC  26094.77952269  .00025789  00000+0  67001-3 0  9998
2 60494  97.3744 177.7707 0004465 160.9845 199.1568 15.38926228 91002
FLOCK 4BE-34            
1 60495U 24149AD  26094.79895297  .00025836  00000+0  66868-3 0  9991
2 60495  97.3788 178.5608 0004548 166.8659 193.2705 15.39042979 91034
TYCHE                   
1 60496U 24149AE  26094.81785570  .00007385  00000+0  29032-3 0  9998
2 60496  97.3771 173.6165 0004888 152.2346 207.9154 15.25953905 90710
FLOCK 4BE-32            
1 60497U 24149AF  26094.67665501  .00026217  00000+0  66361-3 0  9995
2 60497  97.3730 177.9482 0004608 164.9078 195.2306 15.39720872 91019
NUSAT-48 (HENRIETTA LE*)
1 60498U 24149AG  26094.77451475  .00016219  00000+0  56296-3 0  9997
2 60498  97.3907 176.6556 0004451 159.0476 201.0947 15.29849325 90916
FLOCK 4BE-30            
1 60499U 24149AH  26094.79677442  .00107157  00000+0  24214-2 0  9990
2 60499  97.3807 178.7094 0003386 205.8793 154.2285 15.42770961 90417
NUSAT-49 (KLARA DAN VO*)
1 60500U 24149AJ  26094.68848406  .00015184  00000+0  53139-3 0  9998
2 60500  97.3793 176.4794 0003105 163.0677 197.0668 15.29600940 90897
FLOCK 4BE-11            
1 60501U 24149AK  26094.77617285  .00027229  00000+0  67088-3 0  9999
2 60501  97.3715 178.2053 0004708 165.0286 195.1100 15.40536110 91046
